[{"CCSDS_OMM_VERS":"2.0","COMMENT":"GENERATED VIA SPACE-TRACK.ORG API","CREATION_DATE":"2021-01-17T22:56:09","ORIGINATOR":"18 SPCS","OBJECT_NAME":"ONEWEB-0135","OBJECT_ID":"2020-100Z","CENTER_NAME":"EARTH","REF_FRAME":"TEME","TIME_SYSTEM":"UTC","MEAN_ELEMENT_THEORY":"SGP4","EPOCH":"2021-01-17T20:00:01.000224","MEAN_MOTION":"15.20463562","ECCENTRICITY":"0.00138620","INCLINATION":"87.4440","RA_OF_ASC_NODE":"28.9125","ARG_OF_PERICENTER":"135.9785","MEAN_ANOMALY":"60.8623","EPHEMERIS_TYPE":"0","CLASSIFICATION_TYPE":"U","NORAD_CAT_ID":"47281","ELEMENT_SET_NO":"999","REV_AT_EPOCH":"465","BSTAR":"-0.06953200000000","MEAN_MOTION_DOT":"-0.01380343","MEAN_MOTION_DDOT":"0.0000000000000","SEMIMAJOR_AXIS":"6882.578","PERIOD":"94.707","APOAPSIS":"513.983","PERIAPSIS":"494.902","OBJECT_TYPE":"PAYLOAD","RCS_SIZE":"LARGE","COUNTRY_CODE":"UK","LAUNCH_DATE":"2020-12-18","SITE":"VOSTO","DECAY_DATE":null,"FILE":"2929411","GP_ID":"169766289","TLE_LINE0":"0 ONEWEB-0135","TLE_LINE1":"1 47281U 20100Z   21017.83334491 -.01380343  00000-0 -69532-1 0  9991","TLE_LINE2":"2 47281  87.4440  28.9125 0013862 135.9785  60.8623 15.20463562  4650"},{"CCSDS_OMM_VERS":"2.0","COMMENT":"GENERATED VIA SPACE-TRACK.ORG API","CREATION_DATE":"2021-01-18T02:50:50","ORIGINATOR":"18 SPCS","OBJECT_NAME":"ONEWEB-0135","OBJECT_ID":"2020-100Z","CENTER_NAME":"EARTH","REF_FRAME":"TEME","TIME_SYSTEM":"UTC","MEAN_ELEMENT_THEORY":"SGP4","EPOCH":"2021-01-17T22:00:00.999936","MEAN_MOTION":"15.20208020","ECCENTRICITY":"0.00137850","INCLINATION":"87.4444","RA_OF_ASC_NODE":"28.8843","ARG_OF_PERICENTER":"136.8727","MEAN_ANOMALY":"155.7560","EPHEMERIS_TYPE":"0","CLASSIFICATION_TYPE":"U","NORAD_CAT_ID":"47281","ELEMENT_SET_NO":"999","REV_AT_EPOCH":"179","BSTAR":"-0.06953600000000","MEAN_MOTION_DOT":"-0.01370974","MEAN_MOTION_DDOT":"0.0000000000000","SEMIMAJOR_AXIS":"6883.349","PERIOD":"94.723","APOAPSIS":"514.703","PERIAPSIS":"495.725","OBJECT_TYPE":"PAYLOAD","RCS_SIZE":"LARGE","COUNTRY_CODE":"UK","LAUNCH_DATE":"2020-12-18","SITE":"VOSTO","DECAY_DATE":null,"FILE":"2929742","GP_ID":"169796041","TLE_LINE0":"0 ONEWEB-0135","TLE_LINE1":"1 47281U 20100Z   21017.91667824 -.01370974  00000-0 -69536-1 0  9992","TLE_LINE2":"2 47281  87.4444  28.8843 0013785 136.8727 155.7560 15.20208020  1792"},{"CCSDS_OMM_VERS":"2.0","COMMENT":"GENERATED VIA SPACE-TRACK.ORG API","CREATION_DATE":"2021-01-18T07:26:09","ORIGINATOR":"18 SPCS","OBJECT_NAME":"ONEWEB-0135","OBJECT_ID":"2020-100Z","CENTER_NAME":"EARTH","REF_FRAME":"TEME","TIME_SYSTEM":"UTC","MEAN_ELEMENT_THEORY":"SGP4","EPOCH":"2021-01-18T04:00:01.999584","MEAN_MOTION":"15.19502889","ECCENTRICITY":"0.00138300","INCLINATION":"87.4456","RA_OF_ASC_NODE":"28.7984","ARG_OF_PERICENTER":"135.9366","MEAN_ANOMALY":"83.6559","EPHEMERIS_TYPE":"0","CLASSIFICATION_TYPE":"U","NORAD_CAT_ID":"47281","ELEMENT_SET_NO":"999","REV_AT_EPOCH":"470","BSTAR":"-0.07737600000000","MEAN_MOTION_DOT":"-0.01504216","MEAN_MOTION_DDOT":"0.0000000000000","SEMIMAJOR_AXIS":"6885.478","PERIOD":"94.767","APOAPSIS":"516.866","PERIAPSIS":"497.821","OBJECT_TYPE":"PAYLOAD","RCS_SIZE":"LARGE","COUNTRY_CODE":"UK","LAUNCH_DATE":"2020-12-18","SITE":"VOSTO","DECAY_DATE":null,"FILE":"2929877","GP_ID":"169798529","TLE_LINE0":"0 ONEWEB-0135","TLE_LINE1":"1 47281U 20100Z   21018.16668981 -.01504216  00000-0 -77376-1 0  9994","TLE_LINE2":"2 47281  87.4456  28.7984 0013830 135.9366  83.6559 15.19502889  4709"},{"CCSDS_OMM_VERS":"2.0","COMMENT":"GENERATED VIA SPACE-TRACK.ORG API","CREATION_DATE":"2021-01-18T20:00:55","ORIGINATOR":"18 SPCS","OBJECT_NAME":"ONEWEB-0135","OBJECT_ID":"2020-100Z","CENTER_NAME":"EARTH","REF_FRAME":"TEME","TIME_SYSTEM":"UTC","MEAN_ELEMENT_THEORY":"SGP4","EPOCH":"2021-01-18T10:00:00.999936","MEAN_MOTION":"15.18666590","ECCENTRICITY":"0.00137560","INCLINATION":"87.4468","RA_OF_ASC_NODE":"28.7133","ARG_OF_PERICENTER":"134.2308","MEAN_ANOMALY":"11.5457","EPHEMERIS_TYPE":"0","CLASSIFICATION_TYPE":"U","NORAD_CAT_ID":"47281","ELEMENT_SET_NO":"999","REV_AT_EPOCH":"187","BSTAR":"-0.07250500000000","MEAN_MOTION_DOT":"-0.01367068","MEAN_MOTION_DDOT":"0.0000000000000","SEMIMAJOR_AXIS":"6888.006","PERIOD":"94.820","APOAPSIS":"519.346","PERIAPSIS":"500.396","OBJECT_TYPE":"PAYLOAD","RCS_SIZE":"LARGE","COUNTRY_CODE":"UK","LAUNCH_DATE":"2020-12-18","SITE":"VOSTO","DECAY_DATE":null,"FILE":"2930254","GP_ID":"169827326","TLE_LINE0":"0 ONEWEB-0135","TLE_LINE1":"1 47281U 20100Z   21018.41667824 -.01367068  00000-0 -72505-1 0  9998","TLE_LINE2":"2 47281  87.4468  28.7133 0013756 134.2308  11.5457 15.18666590  1874"},{"CCSDS_OMM_VERS":"2.0","COMMENT":"GENERATED VIA SPACE-TRACK.ORG API","CREATION_DATE":"2021-01-18T20:06:10","ORIGINATOR":"18 SPCS","OBJECT_NAME":"ONEWEB-0135","OBJECT_ID":"2020-100Z","CENTER_NAME":"EARTH","REF_FRAME":"TEME","TIME_SYSTEM":"UTC","MEAN_ELEMENT_THEORY":"SGP4","EPOCH":"2021-01-18T18:00:02.000160","MEAN_MOTION":"15.17676367","ECCENTRICITY":"0.00139830","INCLINATION":"87.4483","RA_OF_ASC_NODE":"28.6017","ARG_OF_PERICENTER":"132.8351","MEAN_ANOMALY":"33.5547","EPHEMERIS_TYPE":"0","CLASSIFICATION_TYPE":"U","NORAD_CAT_ID":"47281","ELEMENT_SET_NO":"999","REV_AT_EPOCH":"479","BSTAR":"-0.07859900000000","MEAN_MOTION_DOT":"-0.01453686","MEAN_MOTION_DDOT":"0.0000000000000","SEMIMAJOR_AXIS":"6891.002","PERIOD":"94.881","APOAPSIS":"522.502","PERIAPSIS":"503.231","OBJECT_TYPE":"PAYLOAD","RCS_SIZE":"LARGE","COUNTRY_CODE":"UK","LAUNCH_DATE":"2020-12-18","SITE":"VOSTO","DECAY_DATE":null,"FILE":"2930291","GP_ID":"169828791","TLE_LINE0":"0 ONEWEB-0135","TLE_LINE1":"1 47281U 20100Z   21018.75002315 -.01453686  00000-0 -78599-1 0  9994","TLE_LINE2":"2 47281  87.4483  28.6017 0013983 132.8351  33.5547 15.17676367  4795"},{"CCSDS_OMM_VERS":"2.0","COMMENT":"GENERATED VIA SPACE-TRACK.ORG API","CREATION_DATE":"2021-01-19T02:17:01","ORIGINATOR":"18 SPCS","OBJECT_NAME":"ONEWEB-0135","OBJECT_ID":"2020-100Z","CENTER_NAME":"EARTH","REF_FRAME":"TEME","TIME_SYSTEM":"UTC","MEAN_ELEMENT_THEORY":"SGP4","EPOCH":"2021-01-18T22:00:00.999936","MEAN_MOTION":"15.17119516","ECCENTRICITY":"0.00138720","INCLINATION":"87.4491","RA_OF_ASC_NODE":"28.5455","ARG_OF_PERICENTER":"133.6590","MEAN_ANOMALY":"222.4875","EPHEMERIS_TYPE":"0","CLASSIFICATION_TYPE":"U","NORAD_CAT_ID":"47281","ELEMENT_SET_NO":"999","REV_AT_EPOCH":"176","BSTAR":"-0.07552500000000","MEAN_MOTION_DOT":"-0.01362307","MEAN_MOTION_DDOT":"0.0000000000000","SEMIMAJOR_AXIS":"6892.688","PERIOD":"94.916","APOAPSIS":"524.114","PERIAPSIS":"504.991","OBJECT_TYPE":"PAYLOAD","RCS_SIZE":"LARGE","COUNTRY_CODE":"UK","LAUNCH_DATE":"2020-12-18","SITE":"VOSTO","DECAY_DATE":null,"FILE":"2930837","GP_ID":"169862139","TLE_LINE0":"0 ONEWEB-0135","TLE_LINE1":"1 47281U 20100Z   21018.91667824 -.01362307  00000-0 -75525-1 0  9999","TLE_LINE2":"2 47281  87.4491  28.5455 0013872 133.6590 222.4875 15.17119516  1765"},{"CCSDS_OMM_VERS":"2.0","COMMENT":"GENERATED VIA SPACE-TRACK.ORG API","CREATION_DATE":"2021-01-19T14:26:12","ORIGINATOR":"18 SPCS","OBJECT_NAME":"ONEWEB-0135","OBJECT_ID":"2020-100Z","CENTER_NAME":"EARTH","REF_FRAME":"TEME","TIME_SYSTEM":"UTC","MEAN_ELEMENT_THEORY":"SGP4","EPOCH":"2021-01-19T12:00:00.999648","MEAN_MOTION":"15.15361624","ECCENTRICITY":"0.00139380","INCLINATION":"87.4519","RA_OF_ASC_NODE":"28.3475","ARG_OF_PERICENTER":"132.0108","MEAN_ANOMALY":"166.0582","EPHEMERIS_TYPE":"0","CLASSIFICATION_TYPE":"U","NORAD_CAT_ID":"47281","ELEMENT_SET_NO":"999","REV_AT_EPOCH":"490","BSTAR":"-0.08251700000000","MEAN_MOTION_DOT":"-0.01430213","MEAN_MOTION_DDOT":"0.0000000000000","SEMIMAJOR_AXIS":"6898.017","PERIOD":"95.026","APOAPSIS":"529.497","PERIAPSIS":"510.268","OBJECT_TYPE":"PAYLOAD","RCS_SIZE":"LARGE","COUNTRY_CODE":"UK","LAUNCH_DATE":"2020-12-18","SITE":"VOSTO","DECAY_DATE":null,"FILE":"2931325","GP_ID":"169873850","TLE_LINE0":"0 ONEWEB-0135","TLE_LINE1":"1 47281U 20100Z   21019.50001157 -.01430213  00000-0 -82517-1 0  9997","TLE_LINE2":"2 47281  87.4519  28.3475 0013938 132.0108 166.0582 15.15361624  4901"},{"CCSDS_OMM_VERS":"2.0","COMMENT":"GENERATED VIA SPACE-TRACK.ORG API","CREATION_DATE":"2021-01-19T19:57:40","ORIGINATOR":"18 SPCS","OBJECT_NAME":"ONEWEB-0135","OBJECT_ID":"2020-100Z","CENTER_NAME":"EARTH","REF_FRAME":"TEME","TIME_SYSTEM":"UTC","MEAN_ELEMENT_THEORY":"SGP4","EPOCH":"2021-01-19T14:00:01.000224","MEAN_MOTION":"15.15127236","ECCENTRICITY":"0.00138640","INCLINATION":"87.4523","RA_OF_ASC_NODE":"28.3200","ARG_OF_PERICENTER":"131.0840","MEAN_ANOMALY":"261.2373","EPHEMERIS_TYPE":"0","CLASSIFICATION_TYPE":"U","NORAD_CAT_ID":"47281","ELEMENT_SET_NO":"999","REV_AT_EPOCH":"186","BSTAR":"-0.08600300000000","MEAN_MOTION_DOT":"-0.01476563","MEAN_MOTION_DDOT":"0.0000000000000","SEMIMAJOR_AXIS":"6898.729","PERIOD":"95.041","APOAPSIS":"530.158","PERIAPSIS":"511.029","OBJECT_TYPE":"PAYLOAD","RCS_SIZE":"LARGE","COUNTRY_CODE":"UK","LAUNCH_DATE":"2020-12-18","SITE":"VOSTO","DECAY_DATE":null,"FILE":"2931671","GP_ID":"169901247","TLE_LINE0":"0 ONEWEB-0135","TLE_LINE1":"1 47281U 20100Z   21019.58334491 -.01476563  00000-0 -86003-1 0  9997","TLE_LINE2":"2 47281  87.4523  28.3200 0013864 131.0840 261.2373 15.15127236  1869"}]